{
  "type": "FeatureCollection",
  "features": [
    {
      "type": "Feature",
      "properties": {
        "norad_id": 35033,
        "name": "COSMOS 2251 DEB",
        "group": "cosmos-2251-debris",
        "lat": -38.05514688951226,
        "lon": 11.027874773243962,
        "alt_km": 724.2414047258326,
        "timestamp": "2025-12-11T22:43:47.666567+00:00",
        "meta_object_name": "COSMOS 2251 DEB",
        "meta_object_id": "1993-036AGW",
        "meta_epoch": "2025-12-09T20:04:28.770240",
        "meta_mean_motion": 14.50906436,
        "meta_eccentricity": 0.00144326,
        "meta_inclination": 74.0258,
        "meta_ra_of_asc_node": 182.0397,
        "meta_arg_of_pericenter": 288.5729,
        "meta_mean_anomaly": 71.3864,
        "meta_ephemeris_type": 0,
        "meta_classification_type": "U",
        "meta_norad_cat_id": 35033,
        "meta_element_set_no": 999,
        "meta_rev_at_epoch": 65885,
        "meta_bstar": 0.0010175317,
        "meta_mean_motion_dot": 3.996e-05,
        "meta_mean_motion_ddot": 0,
        "tle_line1": "1 35033U 93036AGW 25343.83644410  .00003996  00000+0  10175-2 0  9994",
        "tle_line2": "2 35033  74.0258 182.0397 0014432 288.5729  71.3864 14.50906436658856"
      },
      "geometry": {
        "type": "Point",
        "coordinates": [
          11.027874773243962,
          -38.05514688951226
        ]
      }
    },
    {
      "type": "Feature",
      "properties": {
        "norad_id": 35038,
        "name": "COSMOS 2251 DEB",
        "group": "cosmos-2251-debris",
        "lat": -70.3657683157948,
        "lon": -82.99372004539707,
        "alt_km": 866.8540421395955,
        "timestamp": "2025-12-11T22:43:47.666577+00:00",
        "meta_object_name": "COSMOS 2251 DEB",
        "meta_object_id": "1993-036AHB",
        "meta_epoch": "2025-12-09T21:12:51.178752",
        "meta_mean_motion": 14.25117767,
        "meta_eccentricity": 0.01138214,
        "meta_inclination": 74.1071,
        "meta_ra_of_asc_node": 47.7141,
        "meta_arg_of_pericenter": 32.4196,
        "meta_mean_anomaly": 86.2003,
        "meta_ephemeris_type": 0,
        "meta_classification_type": "U",
        "meta_norad_cat_id": 35038,
        "meta_element_set_no": 999,
        "meta_rev_at_epoch": 85528,
        "meta_bstar": 0.0019860831,
        "meta_mean_motion_dot": 4.964e-05,
        "meta_mean_motion_ddot": 0,
        "tle_line1": "1 35038U 93036AHB 25343.88392568  .00004964  00000+0  19861-2 0  9995",
        "tle_line2": "2 35038  74.1071  47.7141 0113821  32.4196  86.2003 14.25117767855284"
      },
      "geometry": {
        "type": "Point",
        "coordinates": [
          -82.99372004539707,
          -70.3657683157948
        ]
      }
    },
    {
      "type": "Feature",
      "properties": {
        "norad_id": 35043,
        "name": "COSMOS 2251 DEB",
        "group": "cosmos-2251-debris",
        "lat": -45.515543826392864,
        "lon": 30.095365434604247,
        "alt_km": 606.6829366215234,
        "timestamp": "2025-12-11T22:43:47.666586+00:00",
        "meta_object_name": "COSMOS 2251 DEB",
        "meta_object_id": "1993-036AHG",
        "meta_epoch": "2025-12-11T14:49:01.743456",
        "meta_mean_motion": 14.76867381,
        "meta_eccentricity": 0.009672,
        "meta_inclination": 73.9511,
        "meta_ra_of_asc_node": 47.7878,
        "meta_arg_of_pericenter": 257.3476,
        "meta_mean_anomaly": 101.6871,
        "meta_ephemeris_type": 0,
        "meta_classification_type": "U",
        "meta_norad_cat_id": 35043,
        "meta_element_set_no": 999,
        "meta_rev_at_epoch": 67402,
        "meta_bstar": 0.0056494759,
        "meta_mean_motion_dot": 0.00043112,
        "meta_mean_motion_ddot": 0,
        "tle_line1": "1 35043U 93036AHG 25345.61738129  .00043112  00000+0  56495-2 0  9993",
        "tle_line2": "2 35043  73.9511  47.7878 0096720 257.3476 101.6871 14.76867381674026"
      },
      "geometry": {
        "type": "Point",
        "coordinates": [
          30.095365434604247,
          -45.515543826392864
        ]
      }
    },
    {
      "type": "Feature",
      "properties": {
        "norad_id": 35045,
        "name": "COSMOS 2251 DEB",
        "group": "cosmos-2251-debris",
        "lat": -2.231854378585171,
        "lon": 53.45122277353776,
        "alt_km": 829.8939094397692,
        "timestamp": "2025-12-11T22:43:47.666597+00:00",
        "meta_object_name": "COSMOS 2251 DEB",
        "meta_object_id": "1993-036AHJ",
        "meta_epoch": "2025-12-11T12:27:14.546304",
        "meta_mean_motion": 14.00381656,
        "meta_eccentricity": 0.01835424,
        "meta_inclination": 73.7196,
        "meta_ra_of_asc_node": 54.8596,
        "meta_arg_of_pericenter": 297.0357,
        "meta_mean_anomaly": 61.2143,
        "meta_ephemeris_type": 0,
        "meta_classification_type": "U",
        "meta_norad_cat_id": 35045,
        "meta_element_set_no": 999,
        "meta_rev_at_epoch": 84626,
        "meta_bstar": 0.0010091433,
        "meta_mean_motion_dot": 1.702e-05,
        "meta_mean_motion_ddot": 0,
        "tle_line1": "1 35045U 93036AHJ 25345.51891836  .00001702  00000+0  10091-2 0  9990",
        "tle_line2": "2 35045  73.7196  54.8596 0183542 297.0357  61.2143 14.00381656846262"
      },
      "geometry": {
        "type": "Point",
        "coordinates": [
          53.45122277353776,
          -2.231854378585171
        ]
      }
    },
    {
      "type": "Feature",
      "properties": {
        "norad_id": 35060,
        "name": "COSMOS 2251 DEB",
        "group": "cosmos-2251-debris",
        "lat": 33.26362240400364,
        "lon": 54.98192053215465,
        "alt_km": 763.607758681117,
        "timestamp": "2025-12-11T22:43:47.666607+00:00",
        "meta_object_name": "COSMOS 2251 DEB",
        "meta_object_id": "1993-036AHP",
        "meta_epoch": "2025-11-28T02:37:07.839264",
        "meta_mean_motion": 14.41547968,
        "meta_eccentricity": 0.00179641,
        "meta_inclination": 74.0363,
        "meta_ra_of_asc_node": 271.4275,
        "meta_arg_of_pericenter": 359.5881,
        "meta_mean_anomaly": 0.5257,
        "meta_ephemeris_type": 0,
        "meta_classification_type": "U",
        "meta_norad_cat_id": 35060,
        "meta_element_set_no": 999,
        "meta_rev_at_epoch": 87031,
        "meta_bstar": 0.0004076845,
        "meta_mean_motion_dot": 1.301e-05,
        "meta_mean_motion_ddot": 0,
        "tle_line1": "1 35060U 93036AHP 25332.10911851  .00001301  00000+0  40768-3 0  9998",
        "tle_line2": "2 35060  74.0363 271.4275 0017964 359.5881   0.5257 14.41547968870310"
      },
      "geometry": {
        "type": "Point",
        "coordinates": [
          54.98192053215465,
          33.26362240400364
        ]
      }
    },
    {
      "type": "Feature",
      "properties": {
        "norad_id": 35061,
        "name": "COSMOS 2251 DEB",
        "group": "cosmos-2251-debris",
        "lat": -43.47751643216322,
        "lon": -68.48447252119743,
        "alt_km": 680.9218075433901,
        "timestamp": "2025-12-11T22:43:47.666618+00:00",
        "meta_object_name": "COSMOS 2251 DEB",
        "meta_object_id": "1993-036AHQ",
        "meta_epoch": "2025-12-11T14:45:31.071744",
        "meta_mean_motion": 14.67810382,
        "meta_eccentricity": 0.00390697,
        "meta_inclination": 74.046,
        "meta_ra_of_asc_node": 307.8955,
        "meta_arg_of_pericenter": 59.0941,
        "meta_mean_anomaly": 301.4061,
        "meta_ephemeris_type": 0,
        "meta_classification_type": "U",
        "meta_norad_cat_id": 35061,
        "meta_element_set_no": 999,
        "meta_rev_at_epoch": 88558,
        "meta_bstar": 0.0012758561,
        "meta_mean_motion_dot": 7.342e-05,
        "meta_mean_motion_ddot": 0,
        "tle_line1": "1 35061U 93036AHQ 25345.61494296  .00007342  00000+0  12759-2 0  9997",
        "tle_line2": "2 35061  74.0460 307.8955 0039069  59.0941 301.4061 14.67810382885589"
      },
      "geometry": {
        "type": "Point",
        "coordinates": [
          -68.48447252119743,
          -43.47751643216322
        ]
      }
    },
    {
      "type": "Feature",
      "properties": {
        "norad_id": 35062,
        "name": "COSMOS 2251 DEB",
        "group": "cosmos-2251-debris",
        "lat": 37.9012148895966,
        "lon": -98.1723634056165,
        "alt_km": 747.4531210694267,
        "timestamp": "2025-12-11T22:43:47.666628+00:00",
        "meta_object_name": "COSMOS 2251 DEB",
        "meta_object_id": "1993-036AHR",
        "meta_epoch": "2025-12-10T15:42:45.436320",
        "meta_mean_motion": 14.22906612,
        "meta_eccentricity": 0.01275957,
        "meta_inclination": 74.0784,
        "meta_ra_of_asc_node": 96.9836,
        "meta_arg_of_pericenter": 97.3041,
        "meta_mean_anomaly": 264.2628,
        "meta_ephemeris_type": 0,
        "meta_classification_type": "U",
        "meta_norad_cat_id": 35062,
        "meta_element_set_no": 999,
        "meta_rev_at_epoch": 85469,
        "meta_bstar": 0.0028656551,
        "meta_mean_motion_dot": 6.986e-05,
        "meta_mean_motion_ddot": 0,
        "tle_line1": "1 35062U 93036AHR 25344.65469255  .00006986  00000+0  28657-2 0  9995",
        "tle_line2": "2 35062  74.0784  96.9836 0127595  97.3041 264.2628 14.22906612854697"
      },
      "geometry": {
        "type": "Point",
        "coordinates": [
          -98.1723634056165,
          37.9012148895966
        ]
      }
    }
  ]
}